NORAD_CAT_ID,OBJECT_NAME,OBJECT_TYPE,EPOCH,MEAN_MOTION,ECCENTRICITY,INCLINATION,RA_OF_ASC_NODE,ARG_OF_PERICENTER,MEAN_ANOMALY,BSTAR,MEAN_MOTION_DOT,MEAN_MOTION_DDOT,TLE_LINE0,TLE_LINE1,TLE_LINE2,SEMIMAJOR_AXIS,PERIOD,APOGEE,PERIGEE,DECAYED
53823.0,STARLINK-4748,PAYLOAD,2024-03-05 22:57:51,15.08830799,0.0001488,53.2185,312.9594,93.5495,266.5667,-0.00017148,-3.015e-05,0.0,0 STARLINK-4748,1 53823U 22114F   24065.95684948 -.00003015  00000-0 -17148-3 0  9996,2 53823  53.2185 312.9594 0001488  93.5495 266.5667 15.08830799 82699,6917.909,95.438,540.803,538.744,0.0
53823.0,STARLINK-4748,PAYLOAD,2024-03-06 22:48:39,15.08850496,0.0001521,53.2178,308.5004,75.3387,284.7773,0.00092007,0.00014389,0.0,0 STARLINK-4748,1 53823U 22114F   24066.95045401  .00014389  00000-0  92007-3 0  9993,2 53823  53.2178 308.5004 0001521  75.3387 284.7773 15.08850496 82308,6917.848,95.437,540.766,538.661,0.0
53823.0,STARLINK-4748,PAYLOAD,2024-03-08 08:11:45,15.08844589,0.0001202,53.2171,302.2554,81.8734,278.2395,0.00068449,0.00010624,0.0,0 STARLINK-4748,1 53823U 22114F   24068.34149431  .00010624  00000-0  68449-3 0  9997,2 53823  53.2171 302.2554 0001202  81.8734 278.2395 15.08844589 82513,6917.866,95.437,540.563,538.9,0.0
53823.0,STARLINK-4748,PAYLOAD,2024-03-09 00:05:36,15.08840161,0.0001337,53.2175,299.285,102.1022,258.012,0.00030723,4.605e-05,0.0,0 STARLINK-4748,1 53823U 22114F   24069.00389659  .00004605  00000-0  30723-3 0  9995,2 53823  53.2175 299.2850 0001337 102.1022 258.0120 15.08840161 82612,6917.88,95.438,540.67,538.82,0.0
53823.0,STARLINK-4748,PAYLOAD,2024-03-09 08:02:32,15.08851309,0.0002183,53.2169,297.7956,81.4647,278.6593,0.00075045,0.00011679,0.0,0 STARLINK-4748,1 53823U 22114F   24069.33509815  .00011679  00000-0  75045-3 0  9994,2 53823  53.2169 297.7956 0002183  81.4647 278.6593 15.08851309 83201,6917.846,95.437,541.221,538.201,0.0
53823.0,STARLINK-4748,PAYLOAD,2024-03-10 07:53:19,15.08847543,0.000209,53.218,293.3342,81.8226,278.3003,0.0003139,4.712e-05,0.0,0 STARLINK-4748,1 53823U 22114F   24070.32869672  .00004712  00000-0  31390-3 0  9990,2 53823  53.2180 293.3342 0002090  81.8226 278.3003 15.08847543 82813,6917.857,95.437,541.168,538.277,0.0
53823.0,STARLINK-4748,PAYLOAD,2024-03-10 14:14:52,15.08827644,0.0001956,53.2147,292.1441,84.0502,276.0713,-0.00023842,-4.079e-05,0.0,0 STARLINK-4748,1 53823U 22114F   24070.59366257 -.00004079  00000-0 -23842-3 0  9991,2 53823  53.2147 292.1441 0001956  84.0502 276.0713 15.08827644 83392,6917.918,95.438,541.136,538.43,0.0
53823.0,STARLINK-4748,PAYLOAD,2024-03-10 20:36:24,15.08827539,0.000147,53.2151,290.9566,88.8702,271.2459,-0.00014965,-2.668e-05,0.0,0 STARLINK-4748,1 53823U 22114F   24070.85862110 -.00002668  00000-0 -14965-3 0  9997,2 53823  53.2151 290.9566 0001470  88.8702 271.2459 15.08827539 82897,6917.918,95.438,540.8,538.767,0.0
53823.0,STARLINK-4748,PAYLOAD,2024-03-10 22:11:48,15.08828401,0.0001431,53.2153,290.6593,88.012,272.1036,-6.3995e-05,-1.306e-05,0.0,0 STARLINK-4748,1 53823U 22114F   24070.92486144 -.00001306  00000-0 -63995-4 0  9990,2 53823  53.2153 290.6593 0001431  88.0120 272.1036 15.08828401 83441,6917.916,95.438,540.771,538.791,0.0
53823.0,STARLINK-4748,PAYLOAD,2024-03-11 07:44:06,15.08836073,0.0001407,53.2149,288.8744,88.5996,271.5157,0.00037904,5.749e-05,0.0,0 STARLINK-4748,1 53823U 22114F   24071.32230309  .00005749  00000-0  37904-3 0  9998,2 53823  53.2149 288.8744 0001407  88.5996 271.5157 15.08836073 82969,6917.892,95.438,540.731,538.784,0.0
53823.0,STARLINK-4748,PAYLOAD,2024-03-12 07:34:53,15.08857919,0.0001364,53.2147,284.4138,88.5551,271.5598,0.00071374,0.00011095,0.0,0 STARLINK-4748,1 53823U 22114F   24072.31589864  .00011095  00000-0  71374-3 0  9991,2 53823  53.2147 284.4138 0001364  88.5551 271.5598 15.08857919 83114,6917.826,95.436,540.634,538.747,0.0
53823.0,STARLINK-4748,PAYLOAD,2024-03-12 20:17:58,15.08844895,0.0001777,53.2145,282.0338,96.6603,263.4591,0.00071776,0.00011155,0.0,0 STARLINK-4748,1 53823U 22114F   24072.84581991  .00011155  00000-0  71776-3 0  9995,2 53823  53.2145 282.0338 0001777  96.6603 263.4591 15.08844895 83734,6917.865,95.437,540.96,538.501,0.0
53823.0,STARLINK-4748,PAYLOAD,2024-03-13 07:25:40,15.0884507,0.0001423,53.2152,279.9505,106.4227,253.6921,0.00061061,9.445e-05,0.0,0 STARLINK-4748,1 53823U 22114F   24073.30949956  .00009445  00000-0  61061-3 0  9991,2 53823  53.2152 279.9505 0001423 106.4227 253.6921 15.08845070 83265,6917.865,95.437,540.714,538.745,0.0
53823.0,STARLINK-4748,PAYLOAD,2024-03-13 23:19:32,15.08843142,0.0001626,53.2163,276.9768,102.9793,257.138,0.00031625,4.749e-05,0.0,0 STARLINK-4748,1 53823U 22114F   24073.97190071  .00004749  00000-0  31625-3 0  9995,2 53823  53.2163 276.9768 0001626 102.9793 257.1380 15.08843142 83366,6917.871,95.437,540.861,538.611,0.0
53823.0,STARLINK-4748,PAYLOAD,2024-03-14 18:24:09,15.0884063,0.0001628,53.2171,273.4065,110.6817,249.435,0.00015606,2.197e-05,0.0,0 STARLINK-4748,1 53823U 22114F   24074.76678140  .00002197  00000-0  15606-3 0  9997,2 53823  53.2171 273.4065 0001628 110.6817 249.4350 15.08840630 83485,6917.878,95.438,540.87,538.617,0.0
53823.0,STARLINK-4748,PAYLOAD,2024-03-15 13:28:47,15.08839598,0.0001581,53.2169,269.8394,106.6989,253.4177,8.5457e-05,1.072e-05,0.0,0 STARLINK-4748,1 53823U 22114F   24075.56166311  .00001072  00000-0  85457-4 0  9991,2 53823  53.2169 269.8394 0001581 106.6989 253.4177 15.08839598 84146,6917.882,95.438,540.84,538.653,0.0
53823.0,STARLINK-4748,PAYLOAD,2024-03-16 13:19:34,15.08838798,0.0001661,53.2163,265.3788,106.5565,253.561,4.7664e-05,4.71e-06,0.0,0 STARLINK-4748,1 53823U 22114F   24076.55526453  .00000471  00000-0  47664-4 0  9998,2 53823  53.2163 265.3788 0001661 106.5565 253.5610 15.08838798 84296,6917.884,95.438,540.898,538.6,0.0
53823.0,STARLINK-4748,PAYLOAD,2024-03-16 18:05:44,15.08835585,0.000117,53.2162,264.488,86.2818,273.8308,9.0839e-05,1.158e-05,0.0,0 STARLINK-4748,1 53823U 22114F   24076.75398940  .00001158  00000-0  90839-4 0  9993,2 53823  53.2162 264.4880 0001170  86.2818 273.8308 15.08835585 83781,6917.894,95.438,540.568,538.949,0.0
53823.0,STARLINK-4748,PAYLOAD,2024-03-17 11:34:59,15.08837575,0.0001189,53.2164,261.2186,85.9268,274.186,0.00010059,1.313e-05,0.0,0 STARLINK-4748,1 53823U 22114F   24077.48263017  .00001313  00000-0  10059-3 0  9998,2 53823  53.2164 261.2186 0001189  85.9268 274.1860 15.08837575 84433,6917.888,95.438,540.575,538.93,0.0
53823.0,STARLINK-4748,PAYLOAD,2024-03-17 19:31:54,15.08842398,0.0001256,53.2165,259.7319,88.7757,271.3379,0.00012916,1.768e-05,0.0,0 STARLINK-4748,1 53823U 22114F   24077.81382657  .00001768  00000-0  12916-3 0  9995,2 53823  53.2165 259.7319 0001256  88.7757 271.3379 15.08842398 83941,6917.873,95.437,540.607,538.869,0.0
53823.0,STARLINK-4748,PAYLOAD,2024-03-18 11:25:46,15.08841153,0.0001269,53.2166,256.7583,88.6681,271.4457,0.00013763,1.903e-05,0.0,0 STARLINK-4748,1 53823U 22114F   24078.47622719  .00001903  00000-0  13763-3 0  9996,2 53823  53.2166 256.7583 0001269  88.6681 271.4457 15.08841153 84588,6917.877,95.437,540.62,538.864,0.0
53823.0,STARLINK-4748,PAYLOAD,2024-03-18 20:58:05,15.08839922,0.0001205,53.2159,254.9731,83.543,276.5699,0.00011256,1.504e-05,0.0,0 STARLINK-4748,1 53823U 22114F   24078.87366946  .00001504  00000-0  11256-3 0  9999,2 53823  53.2159 254.9731 0001205  83.5430 276.5699 15.08839922 84104,6917.881,95.438,540.579,538.912,0.0
53823.0,STARLINK-4748,PAYLOAD,2024-03-19 11:16:33,15.08844596,0.0001251,53.216,252.2967,81.2786,278.8348,7.5967e-05,9.21e-06,0.0,0 STARLINK-4748,1 53823U 22114F   24079.46982832  .00000921  00000-0  75967-4 0  9995,2 53823  53.2160 252.2967 0001251  81.2786 278.8348 15.08844596 84736,6917.866,95.437,540.597,538.866,0.0
53823.0,STARLINK-4748,PAYLOAD,2024-03-20 11:07:20,15.08842634,0.0001483,53.2145,247.8381,68.1119,292.003,0.00016107,2.277e-05,0.0,0 STARLINK-4748,1 53823U 22114F   24080.46342777  .00002277  00000-0  16107-3 0  9991,2 53823  53.2145 247.8381 0001483  68.1119 292.0030 15.08842634 84344,6917.872,95.437,540.763,538.711,0.0
53823.0,STARLINK-4748,PAYLOAD,2024-03-20 15:53:29,15.08838031,0.0001221,53.2138,246.9431,87.3458,272.7674,7.6191e-05,9.25e-06,0.0,0 STARLINK-4748,1 53823U 22114F   24080.66214939  .00000925  00000-0  76191-4 0  9999,2 53823  53.2138 246.9431 0001221  87.3458 272.7674 15.08838031 84919,6917.886,95.438,540.596,538.907,0.0
53823.0,STARLINK-4748,PAYLOAD,2024-03-21 10:58:07,15.0883776,0.0001291,53.2145,243.3746,102.2525,257.8612,3.159e-05,2.15e-06,0.0,0 STARLINK-4748,1 53823U 22114F   24081.45703080  .00000215  00000-0  31590-4 0  9993,2 53823  53.2145 243.3746 0001291 102.2525 257.8612 15.08837760 84493,6917.887,95.438,540.645,538.859,0.0
53823.0,STARLINK-4748,PAYLOAD,2024-03-21 14:08:53,15.08838815,0.0001352,53.215,242.7801,106.0001,254.114,4.7163e-05,4.63e-06,0.0,0 STARLINK-4748,1 53823U 22114F   24081.58951039  .00000463  00000-0  47163-4 0  9994,2 53823  53.2150 242.7801 0001352 106.0001 254.1140 15.08838815 85054,6917.884,95.438,540.684,538.814,0.0
53823.0,STARLINK-4748,PAYLOAD,2024-03-21 17:19:39,15.08842581,0.000145,53.217,242.1857,107.2591,252.856,4.1309e-05,3.7e-06,0.0,0 STARLINK-4748,1 53823U 22114F   24081.72198826  .00000370  00000-0  41309-4 0  9990,2 53823  53.2170 242.1857 0001450 107.2591 252.8560 15.08842581 85075,6917.872,95.437,540.741,538.734,0.0
53823.0,STARLINK-4748,PAYLOAD,2024-03-22 10:48:53,15.08842615,0.0001338,53.2172,238.9147,103.1355,256.9786,0.00016439,2.33e-05,0.0,0 STARLINK-4748,1 53823U 22114F   24082.45062432  .00002330  00000-0  16439-3 0  9997,2 53823  53.2172 238.9147 0001338 103.1355 256.9786 15.08842615 84645,6917.872,95.437,540.663,538.812,0.0
53823.0,STARLINK-4748,PAYLOAD,2024-03-22 13:59:40,15.08842037,0.0001332,53.2175,238.3199,96.5162,263.5982,0.00015424,2.168e-05,0.0,0 STARLINK-4748,1 53823U 22114F   24082.58310549  .00002168  00000-0  15424-3 0  9998,2 53823  53.2175 238.3199 0001332  96.5162 263.5982 15.08842037 85207,6917.874,95.437,540.661,538.818,0.0
